{"type": "FeatureCollection", "features": [ {"type": "Feature", "properties": {"norad_id": 38953, "name": "BEIDOU-2 G6 (C02)", "group": "beidou", "lat": -0.6595964055251876, "lon": -95.36033843335439, "alt_km": 35795.02558758559, "timestamp": "2025-12-24T05:51:19.873789+00:00", "meta": {"OBJECT_NAME": "BEIDOU-2 G6 (C02)", "OBJECT_ID": "2012-059A", "EPOCH": "2025-12-23T17:40:08.745312", "MEAN_MOTION": 1.00268216, "ECCENTRICITY": 0.00083291, "INCLINATION": 3.9754, "RA_OF_ASC_NODE": 75.3987, "ARG_OF_PERICENTER": 292.2173, "MEAN_ANOMALY": 73.8502, "EPHEMERIS_TYPE": 0, "CLASSIFICATION_TYPE": "U", "NORAD_CAT_ID": 38953, "ELEMENT_SET_NO": 999, "REV_AT_EPOCH": 4815, "BSTAR": 0, "MEAN_MOTION_DOT": -1.54e-06, "MEAN_MOTION_DDOT": 0}, "tle": {"line1": "1 38953U 12059A   25357.73621233 -.00000154  00000+0  00000+0 0  9993", "line2": "2 38953   3.9754  75.3987 0008329 292.2173  73.8502  1.00268216 48154"}}, "geometry": {"type": "Point", "coordinates": [-95.36033843335439, -0.6595964055251876]}}, {"type": "Feature", "properties": {"norad_id": 40549, "name": "BEIDOU-3S IGSO-1S (C31)", "group": "beidou", "lat": -16.389922029676278, "lon": -76.96855587928877, "alt_km": 35907.80541712808, "timestamp": "2025-12-24T05:51:19.873801+00:00", "meta": {"OBJECT_NAME": "BEIDOU-3S IGSO-1S (C31)", "OBJECT_ID": "2015-019A", "EPOCH": "2025-12-18T19:55:38.829792", "MEAN_MOTION": 1.00292047, "ECCENTRICITY": 0.0036331, "INCLINATION": 49.5404, "RA_OF_ASC_NODE": 297.6395, "ARG_OF_PERICENTER": 194.0028, "MEAN_ANOMALY": 349.3621, "EPHEMERIS_TYPE": 0, "CLASSIFICATION_TYPE": "U", "NORAD_CAT_ID": 40549, "ELEMENT_SET_NO": 999, "REV_AT_EPOCH": 3926, "BSTAR": 0, "MEAN_MOTION_DOT": -1.83e-06, "MEAN_MOTION_DDOT": 0}, "tle": {"line1": "1 40549U 15019A   25352.83031053 -.00000183  00000+0  00000+0 0  9999", "line2": "2 40549  49.5404 297.6395 0036331 194.0028 349.3621  1.00292047 39264"}}, "geometry": {"type": "Point", "coordinates": [-76.96855587928877, -16.389922029676278]}}, {"type": "Feature", "properties": {"norad_id": 40748, "name": "BEIDOU-3S M2S (C58)", "group": "beidou", "lat": -18.236072735916952, "lon": -65.26777173136274, "alt_km": 21517.56050205715, "timestamp": "2025-12-24T05:51:19.873813+00:00", "meta": {"OBJECT_NAME": "BEIDOU-3S M2S (C58)", "OBJECT_ID": "2015-037A", "EPOCH": "2025-12-22T03:06:37.980000", "MEAN_MOTION": 1.86229546, "ECCENTRICITY": 0.00118585, "INCLINATION": 55.0305, "RA_OF_ASC_NODE": 308.1418, "ARG_OF_PERICENTER": 270.827, "MEAN_ANOMALY": 89.0356, "EPHEMERIS_TYPE": 0, "CLASSIFICATION_TYPE": "U", "NORAD_CAT_ID": 40748, "ELEMENT_SET_NO": 999, "REV_AT_EPOCH": 7082, "BSTAR": 0, "MEAN_MOTION_DOT": -5.8e-07, "MEAN_MOTION_DDOT": 0}, "tle": {"line1": "1 40748U 15037A   25356.12960625 -.00000058  00000+0  00000+0 0  9993", "line2": "2 40748  55.0305 308.1418 0011858 270.8270  89.0356  1.86229546 70828"}}, "geometry": {"type": "Point", "coordinates": [-65.26777173136274, -18.236072735916952]}}, {"type": "Feature", "properties": {"norad_id": 40749, "name": "BEIDOU-3S M1S (C57)", "group": "beidou", "lat": -3.522795641937378, "lon": 130.50694357135487, "alt_km": 21536.91401527393, "timestamp": "2025-12-24T05:51:19.873824+00:00", "meta": {"OBJECT_NAME": "BEIDOU-3S M1S (C57)", "OBJECT_ID": "2015-037B", "EPOCH": "2025-12-22T21:29:24.264672", "MEAN_MOTION": 1.86253921, "ECCENTRICITY": 0.00037347, "INCLINATION": 55.0261, "RA_OF_ASC_NODE": 308.1047, "ARG_OF_PERICENTER": 3.0626, "MEAN_ANOMALY": 356.941, "EPHEMERIS_TYPE": 0, "CLASSIFICATION_TYPE": "U", "NORAD_CAT_ID": 40749, "ELEMENT_SET_NO": 999, "REV_AT_EPOCH": 7084, "BSTAR": 0, "MEAN_MOTION_DOT": -5.5e-07, "MEAN_MOTION_DDOT": 0}, "tle": {"line1": "1 40749U 15037B   25356.89541973 -.00000055  00000+0  00000+0 0  9996", "line2": "2 40749  55.0261 308.1047 0003734   3.0626 356.9410  1.86253921 70846"}}, "geometry": {"type": "Point", "coordinates": [130.50694357135487, -3.522795641937378]}}, {"type": "Feature", "properties": {"norad_id": 40938, "name": "BEIDOU-3S IGSO-2S (C56)", "group": "beidou", "lat": 11.792637517438045, "lon": -88.85216716933974, "alt_km": 36040.93153561315, "timestamp": "2025-12-24T05:51:19.873835+00:00", "meta": {"OBJECT_NAME": "BEIDOU-3S IGSO-2S (C56)", "OBJECT_ID": "2015-053A", "EPOCH": "2025-12-23T17:00:29.513952", "MEAN_MOTION": 1.00267867, "ECCENTRICITY": 0.00606419, "INCLINATION": 49.4936, "RA_OF_ASC_NODE": 260.877, "ARG_OF_PERICENTER": 188.6586, "MEAN_ANOMALY": 353.8857, "EPHEMERIS_TYPE": 0, "CLASSIFICATION_TYPE": "U", "NORAD_CAT_ID": 40938, "ELEMENT_SET_NO": 999, "REV_AT_EPOCH": 3759, "BSTAR": 0, "MEAN_MOTION_DOT": -1.09e-06, "MEAN_MOTION_DDOT": 0}, "tle": {"line1": "1 40938U 15053A   25357.70867493 -.00000109  00000+0  00000+0 0  9993", "line2": "2 40938  49.4936 260.8770 0060641 188.6586 353.8857  1.00267867 37590"}}, "geometry": {"type": "Point", "coordinates": [-88.85216716933974, 11.792637517438045]}}, {"type": "Feature", "properties": {"norad_id": 41434, "name": "BEIDOU-2 IGSO-6 (C13)", "group": "beidou", "lat": -44.93779895569652, "lon": -104.96572521920241, "alt_km": 35528.89669466574, "timestamp": "2025-12-24T05:51:19.873847+00:00", "meta": {"OBJECT_NAME": "BEIDOU-2 IGSO-6 (C13)", "OBJECT_ID": "2016-021A", "EPOCH": "2025-12-18T14:33:38.837664", "MEAN_MOTION": 1.00292299, "ECCENTRICITY": 0.00610054, "INCLINATION": 59.9732, "RA_OF_ASC_NODE": 39.8392, "ARG_OF_PERICENTER": 230.2031, "MEAN_ANOMALY": 129.1398, "EPHEMERIS_TYPE": 0, "CLASSIFICATION_TYPE": "U", "NORAD_CAT_ID": 41434, "ELEMENT_SET_NO": 999, "REV_AT_EPOCH": 3566, "BSTAR": 0, "MEAN_MOTION_DOT": -1.41e-06, "MEAN_MOTION_DDOT": 0}, "tle": {"line1": "1 41434U 16021A   25352.60669951 -.00000141  00000+0  00000+0 0  9990", "line2": "2 41434  59.9732  39.8392 0061005 230.2031 129.1398  1.00292299 35667"}}, "geometry": {"type": "Point", "coordinates": [-104.96572521920241, -44.93779895569652]}}, {"type": "Feature", "properties": {"norad_id": 41586, "name": "BEIDOU-2 G7 (C03)", "group": "beidou", "lat": -1.2462566057099442, "lon": -68.76660507276061, "alt_km": 35803.32208576489, "timestamp": "2025-12-24T05:51:19.873859+00:00", "meta": {"OBJECT_NAME": "BEIDOU-2 G7 (C03)", "OBJECT_ID": "2016-037A", "EPOCH": "2025-12-23T22:13:07.225248", "MEAN_MOTION": 1.00269519, "ECCENTRICITY": 0.00052072, "INCLINATION": 1.7825, "RA_OF_ASC_NODE": 67.8843, "ARG_OF_PERICENTER": 1.2738, "MEAN_ANOMALY": 107.2702, "EPHEMERIS_TYPE": 0, "CLASSIFICATION_TYPE": "U", "NORAD_CAT_ID": 41586, "ELEMENT_SET_NO": 999, "REV_AT_EPOCH": 513, "BSTAR": 0, "MEAN_MOTION_DOT": -3.33e-06, "MEAN_MOTION_DDOT": 0}, "tle": {"line1": "1 41586U 16037A   25357.92577807 -.00000333  00000+0  00000+0 0  9996", "line2": "2 41586   1.7825  67.8843 0005207   1.2738 107.2702  1.00269519  5131"}}, "geometry": {"type": "Point", "coordinates": [-68.76660507276061, -1.2462566057099442]}}, {"type": "Feature", "properties": {"norad_id": 43001, "name": "BEIDOU-3 M1 (C19)", "group": "beidou", "lat": 53.28774082613282, "lon": -173.47639985047215, "alt_km": 21547.596806254558, "timestamp": "2025-12-24T05:51:19.873870+00:00", "meta": {"OBJECT_NAME": "BEIDOU-3 M1 (C19)", "OBJECT_ID": "2017-069A", "EPOCH": "2025-12-21T09:37:16.890816", "MEAN_MOTION": 1.86231333, "ECCENTRICITY": 0.00096297, "INCLINATION": 56.5338, "RA_OF_ASC_NODE": 68.9479, "ARG_OF_PERICENTER": 302.2645, "MEAN_ANOMALY": 57.6886, "EPHEMERIS_TYPE": 0, "CLASSIFICATION_TYPE": "U", "NORAD_CAT_ID": 43001, "ELEMENT_SET_NO": 999, "REV_AT_EPOCH": 5529, "BSTAR": 0, "MEAN_MOTION_DOT": -3.5e-07, "MEAN_MOTION_DDOT": 0}, "tle": {"line1": "1 43001U 17069A   25355.40088994 -.00000035  00000+0  00000+0 0  9990", "line2": "2 43001  56.5338  68.9479 0009629 302.2645  57.6886  1.86231333 55292"}}, "geometry": {"type": "Point", "coordinates": [-173.47639985047215, 53.28774082613282]}}, {"type": "Feature", "properties": {"norad_id": 43002, "name": "BEIDOU-3 M2 (C20)", "group": "beidou", "lat": 26.67043829116881, "lon": -130.4698749110303, "alt_km": 21543.595049646083, "timestamp": "2025-12-24T05:51:19.873881+00:00", "meta": {"OBJECT_NAME": "BEIDOU-3 M2 (C20)", "OBJECT_ID": "2017-069B", "EPOCH": "2025-12-22T09:54:58.962816", "MEAN_MOTION": 1.86231087, "ECCENTRICITY": 0.00067293, "INCLINATION": 56.5339, "RA_OF_ASC_NODE": 68.9503, "ARG_OF_PERICENTER": 327.7398, "MEAN_ANOMALY": 32.2697, "EPHEMERIS_TYPE": 0, "CLASSIFICATION_TYPE": "U", "NORAD_CAT_ID": 43002, "ELEMENT_SET_NO": 999, "REV_AT_EPOCH": 5530, "BSTAR": 0, "MEAN_MOTION_DOT": -2.8e-07, "MEAN_MOTION_DDOT": 0}, "tle": {"line1": "1 43002U 17069B   25356.41318244 -.00000028  00000+0  00000+0 0  9999", "line2": "2 43002  56.5339  68.9503 0006729 327.7398  32.2697  1.86231087 55304"}}, "geometry": {"type": "Point", "coordinates": [-130.4698749110303, 26.67043829116881]}}, {"type": "Feature", "properties": {"norad_id": 43107, "name": "BEIDOU-3 M7 (C27)", "group": "beidou", "lat": -31.65737741199834, "lon": -77.69708285832091, "alt_km": 21534.238689478538, "timestamp": "2025-12-24T05:51:19.873893+00:00", "meta": {"OBJECT_NAME": "BEIDOU-3 M7 (C27)", "OBJECT_ID": "2018-003A", "EPOCH": "2025-12-23T05:31:08.538816", "MEAN_MOTION": 1.86232625, "ECCENTRICITY": 0.0002961, "INCLINATION": 54.4874, "RA_OF_ASC_NODE": 308.4506, "ARG_OF_PERICENTER": 66.5422, "MEAN_ANOMALY": 293.4915, "EPHEMERIS_TYPE": 0, "CLASSIFICATION_TYPE": "U", "NORAD_CAT_ID": 43107, "ELEMENT_SET_NO": 999, "REV_AT_EPOCH": 5407, "BSTAR": 0, "MEAN_MOTION_DOT": -5.5e-07, "MEAN_MOTION_DDOT": 0}, "tle": {"line1": "1 43107U 18003A   25357.22995994 -.00000055  00000+0  00000+0 0  9997", "line2": "2 43107  54.4874 308.4506 0002961  66.5422 293.4915  1.86232625 54072"}}, "geometry": {"type": "Point", "coordinates": [-77.69708285832091, -31.65737741199834]}}]}